     3.00           N: GNSS NAV DATA    M: Mixed            RINEX VERSION / TYPE
RTKCONV demo5 b34f.1                    20231229 152047 UTC PGM / RUN BY / DATE 
format: u-blox UBX                                          COMMENT             
log: C:\Users\oo\Desktop\divers\verniquet\Reseau\micro\reseaCOMMENT             
                                                            END OF HEADER       
E03 2023 12 29 10 50 00 -.833764788695D-04 -.265742983174D-11  .000000000000D+00
      .170000000000D+02 -.902187500000D+02  .289583490886D-08  .167914639174D+01
     -.418908894062D-05  .242109643295D-03  .108499079943D-04  .544061434746D+04
      .471000000000D+06 -.558793544769D-08  .590744827785D+00 -.558793544769D-08
      .960370192073D+00  .108156250000D+03  .106498721192D+01 -.526986236806D-08
      .393230665350D-09  .513000000000D+03  .229400000000D+04  .000000000000D+00
      .312000000000D+01  .000000000000D+00  .325962901115D-08  .372529029846D-08
      .471685000000D+06  .000000000000D+00
E33 2023 12 29 10 50 00  .504509080201D-05  .696331881045D-12  .000000000000D+00
      .170000000000D+02  .131437500000D+03  .268725479209D-08 -.263062935063D+01
      .601448118687D-05  .317067140713D-03 -.713393092155D-06  .544060833359D+04
      .471000000000D+06  .260770320892D-07 -.150317997229D+01 -.316649675369D-07
      .999704911025D+00  .371281250000D+03 -.190889764390D+01 -.573631036892D-08
      .282154610015D-09  .513000000000D+03  .229400000000D+04  .000000000000D+00
      .312000000000D+01  .000000000000D+00 -.325962901115D-08 -.372529029846D-08
      .471685000000D+06  .000000000000D+00
E26 2023 12 29 10 50 00  .323661777657D-03  .110560449684D-10  .000000000000D+00
      .170000000000D+02  .121343750000D+03  .273011372019D-08 -.214822805439D+01
      .571645796299D-05  .357477460057D-03 -.100769102573D-05  .544060556221D+04
      .471000000000D+06  .316649675369D-07 -.150245956413D+01 -.335276126862D-07
      .993010504268D+00  .377312500000D+03 -.165598273997D+01 -.577702635062D-08
      .284297556420D-09  .513000000000D+03  .229400000000D+04  .000000000000D+00
      .312000000000D+01  .000000000000D+00 -.419095158577D-08 -.488944351673D-08
      .471685000000D+06  .000000000000D+00
G10 2023 12 29 11 59 44 -.672121532261D-04 -.147792889038D-11  .000000000000D+00
      .230000000000D+02 -.124031250000D+03  .398695178683D-08 -.193636721948D+01
     -.647455453873D-05  .924649939407D-02  .371783971786D-05  .515369350815D+04
      .475184000000D+06  .800937414169D-07 -.460944615325D+00 -.335276126862D-07
      .982111763114D+00  .314843750000D+03 -.240111873093D+01 -.790532928870D-08
     -.782175437889D-10  .100000000000D+01  .229400000000D+04  .000000000000D+00
      .200000000000D+01  .000000000000D+00  .232830643654D-08  .230000000000D+02
      .472116000000D+06  .400000000000D+01
G17 2023 12 29 11 59 44  .721074175090D-03 -.795807864051D-12  .000000000000D+00
      .130000000000D+02  .102843750000D+03  .378587198248D-08  .237163073363D+01
      .541657209396D-05  .137393195182D-01  .938028097153D-05  .515364712334D+04
      .475184000000D+06  .141561031342D-06 -.249421678941D+01  .353902578354D-07
      .971461425451D+00  .197593750000D+03 -.135305666488D+01 -.738816488958D-08
     -.157149403046D-09  .100000000000D+01  .229400000000D+04  .000000000000D+00
      .200000000000D+01  .000000000000D+00 -.111758708954D-07  .130000000000D+02
      .472206000000D+06  .400000000000D+01
E07 2023 12 29 11 00 00 -.955700525083D-04 -.197530880541D-11  .000000000000D+00
      .180000000000D+02 -.102718750000D+03  .291440711104D-08  .134280243131D+01
     -.471994280815D-05  .812916550785D-04  .118017196655D-04  .544061707115D+04
      .471600000000D+06 -.558793544769D-08  .590799404869D+00 -.149011611938D-07
      .960411911571D+00  .855937500000D+02 -.831596996381D-01 -.527057668353D-08
      .400373820034D-09  .513000000000D+03  .229400000000D+04  .000000000000D+00
      .312000000000D+01  .000000000000D+00  .582076609135D-08  .628642737865D-08
      .472285000000D+06  .000000000000D+00
E02 2023 12 29 11 00 00  .906070927158D-04  .315480974677D-11  .000000000000D+00
      .180000000000D+02 -.113750000000D+02  .318298972716D-08  .238271639622D+00
     -.521540641785D-06  .474107102491D-03  .751577317715D-05  .544061784935D+04
      .471600000000D+06 -.223517417908D-07  .269303905680D+01  .130385160446D-07
      .967818240097D+00  .182093750000D+03  .506657989185D+00 -.541593988135D-08
     -.613596987349D-09  .513000000000D+03  .229400000000D+04  .000000000000D+00
      .312000000000D+01  .000000000000D+00 -.931322574615D-09 -.162981450558D-08
      .472285000000D+06  .000000000000D+00
E03 2023 12 29 11 00 00 -.833780504763D-04 -.265742983174D-11  .000000000000D+00
      .180000000000D+02 -.899062500000D+02  .289119185832D-08  .175332079733D+01
     -.417977571487D-05  .242059701122D-03  .108405947685D-04  .544061448860D+04
      .471600000000D+06 -.558793544769D-08  .590741666419D+00 -.745058059692D-08
      .960370424677D+00  .108656250000D+03  .106519805937D+01 -.527021952580D-08
      .393230665350D-09  .513000000000D+03  .229400000000D+04  .000000000000D+00
      .312000000000D+01  .000000000000D+00  .325962901115D-08  .372529029846D-08
      .472285000000D+06  .000000000000D+00
E14 2023 12 29 12 20 00 -.465428456664D-05  .107434061647D-10  .000000000000D+00
      .260000000000D+02  .258406250000D+03  .352586115198D-08 -.201018363293D+01
      .118911266327D-04  .160876409151D+00  .116489827633D-04  .528940036774D+04
      .476400000000D+06 -.321120023727D-05 -.249968532348D+01  .241585075855D-05
      .870245254191D+00  .158843750000D+03  .253889582167D+01 -.634312135932D-08
     -.342514267094D-09  .513000000000D+03  .229400000000D+04  .000000000000D+00
      .312000000000D+01  .130000000000D+03 -.279396772385D-08 -.349245965481D-08
      .472305000000D+06  .000000000000D+00
E14 2023 12 29 11 00 00 -.470626400784D-05  .107149844553D-10  .000000000000D+00
      .180000000000D+02  .268156250000D+03  .166756946096D-08 -.265775259790D+01
      .125262886286D-04  .160876532784D+00  .859238207340D-05  .528940190315D+04
      .471600000000D+06  .202096998692D-05 -.249966225034D+01  .217929482460D-05
      .870263229065D+00  .188718750000D+03  .253888010847D+01 -.328120810406D-08
     -.340014162955D-09  .513000000000D+03  .229400000000D+04  .000000000000D+00
      .312000000000D+01  .130000000000D+03 -.279396772385D-08 -.349245965481D-08
      .472335000000D+06  .000000000000D+00
E14 2023 12 29 11 10 00 -.469980295748D-05  .107149844553D-10  .000000000000D+00
      .190000000000D+02  .275093750000D+03  .214008914330D-08 -.257679479771D+01
      .130292028189D-04  .160874488996D+00  .851042568684D-05  .528940682411D+04
      .472200000000D+06  .679865479469D-06 -.249966260875D+01  .258907675743D-05
      .870257832360D+00  .203312500000D+03  .253886953303D+01 -.418731727571D-08
     -.355014787791D-09  .513000000000D+03  .229400000000D+04  .000000000000D+00
      .312000000000D+01  .130000000000D+03 -.279396772385D-08 -.349245965481D-08
      .472885000000D+06  .000000000000D+00
E07 2023 12 29 11 10 00 -.955713330768D-04 -.197530880541D-11  .000000000000D+00
      .190000000000D+02 -.100812500000D+03  .292655047400D-08  .142163426628D+01
     -.463984906673D-05  .814483501017D-04  .116936862469D-04  .544061628914D+04
      .472200000000D+06 -.558793544769D-08  .590796249355D+00 -.167638063431D-07
      .960412152953D+00  .881250000000D+02 -.876067467726D-01 -.527093384127D-08
      .399659504565D-09  .513000000000D+03  .229400000000D+04  .000000000000D+00
      .312000000000D+01  .000000000000D+00  .582076609135D-08  .628642737865D-08
      .472885000000D+06  .000000000000D+00
E02 2023 12 29 11 10 00  .906088389456D-04  .314059889206D-11  .000000000000D+00
      .190000000000D+02 -.115625000000D+02  .318548983129D-08  .312771259218D+00
     -.528991222382D-06  .474062049761D-03  .749714672565D-05  .544061770630D+04
      .472200000000D+06 -.242143869400D-07  .269303581497D+01  .931322574615D-08
      .967817883145D+00  .182625000000D+03  .506543521697D+00 -.541558272362D-08
     -.615025618286D-09  .513000000000D+03  .229400000000D+04  .000000000000D+00
      .312000000000D+01  .000000000000D+00 -.931322574615D-09 -.162981450558D-08
      .472885000000D+06  .000000000000D+00
E03 2023 12 29 11 10 00 -.833796802908D-04 -.265742983174D-11  .000000000000D+00
      .190000000000D+02 -.897812500000D+02  .288797743871D-08  .182765746102D+01
     -.418163836002D-05  .242044217885D-03  .108480453491D-04  .544061452484D+04
      .472200000000D+06 -.558793544769D-08  .590738505053D+00 -.745058059692D-08
      .960370657281D+00  .108781250000D+03  .106524660485D+01 -.527057668353D-08
      .393230665350D-09  .513000000000D+03  .229400000000D+04  .000000000000D+00
      .312000000000D+01  .000000000000D+00  .325962901115D-08  .372529029846D-08
      .472885000000D+06  .000000000000D+00
E25 2023 12 29 11 10 00 -.127789098769D-05  .540012479178D-12  .000000000000D+00
      .190000000000D+02 -.113750000000D+02  .318191825395D-08  .157900401112D+01
     -.528991222382D-06  .210763537325D-03  .761076807976D-05  .544060728073D+04
      .472200000000D+06 -.745058059692D-08  .268996755057D+01 -.465661287308D-07
      .967412593395D+00  .183531250000D+03  .976134136476D-02 -.539201031316D-08
     -.652884338110D-09  .513000000000D+03  .229400000000D+04  .000000000000D+00
      .312000000000D+01  .000000000000D+00  .302679836750D-08  .349245965481D-08
      .473035000000D+06  .000000000000D+00
